FLOCK 4G-23             
1 62647U 25009AQ  26193.75046595  .00034117  00000+0  10152-2 0  9999
2 62647  97.3926 275.4335 0003093 177.8892 182.2364 15.34642772 82848
FLOCK 4G-34             
1 62650U 25009AT  26194.16381815  .00006603  00000+0  23174-3 0  9994
2 62650  97.3967 275.6233 0002177 167.8874 192.2419 15.29751359 82889
FLOCK 4G-21             
1 62651U 25009AU  26193.76056943  .00028833  00000+0  91122-3 0  9998
2 62651  97.3994 276.2129 0002951 197.3434 162.7708 15.32763589 82875
FLOCK 4G-31             
1 62652U 25009AV  26193.67009629  .00006291  00000+0  22232-3 0  9998
2 62652  97.3971 275.1044 0001649 162.3844 197.7453 15.29548421 82805
FLOCK 4G-4              
1 62659U 25009BC  26193.77735849  .00028430  00000+0  91889-3 0  9999
2 62659  97.3953 275.0147 0004445 199.7728 160.3342 15.32041929140428
FLOCK 4G-6              
1 62660U 25009BD  26193.79073068  .00006951  00000+0  24233-3 0  9994
2 62660  97.3947 275.0759 0002664 210.8225 149.2859 15.29952265140418
FLOCK 4G-2              
1 62661U 25009BE  26193.78487832  .00007777  00000+0  26791-3 0  9990
2 62661  97.4014 275.7085 0003485 211.5166 148.5867 15.30300301140442
FLOCK 4G-5              
1 62663U 25009BG  26193.78070332  .00006484  00000+0  21985-3 0  9999
2 62663  97.4030 276.1016 0003232 189.2168 170.9014 15.30881733 82850
FLOCK 4G-1              
1 62666U 25009BK  26194.16191658  .00006587  00000+0  22828-3 0  9991
2 62666  97.4027 276.0632 0003815 206.1570 153.9479 15.30163691 82880
FLOCK 4G-14             
1 62667U 25009BL  26193.73452239  .00006543  00000+0  22999-3 0  9990
2 62667  97.4030 275.4355 0003909 202.9881 157.1185 15.29703778 82809
FLOCK 4G-10             
1 62670U 25009BP  26193.81101048  .00007450  00000+0  26066-3 0  9999
2 62670  97.3927 274.8122 0003450 222.7577 137.3396 15.29807775140457
FLOCK 4G-36             
1 62675U 25009BU  26193.80549458  .00007493  00000+0  26235-3 0  9999
2 62675  97.4020 275.4274 0004048 208.9659 151.1358 15.29780125 82819
FLOCK 4G-15             
1 62678U 25009BX  26194.20501123  .00006467  00000+0  22616-3 0  9993
2 62678  97.4019 275.9683 0004350 204.3706 155.7330 15.29874531140526
FLOCK 4G-30             
1 62679U 25009BY  26194.15357408  .00030035  00000+0  91686-3 0  9994
2 62679  97.3919 275.4304 0004122 202.4861 157.6202 15.33856701140521
FLOCK 4G-18             
1 62680U 25009BZ  26194.16564453  .00023481  00000+0  75793-3 0  9995
2 62680  97.4015 275.8404 0005968 218.1123 141.9697 15.32114865140510
FLOCK 4G-17             
1 62681U 25009CA  26194.03543889  .00007797  00000+0  27059-3 0  9996
2 62681  97.3927 275.2721 0003830 222.7150 137.3794 15.30057115140503
